STARLINK-2022           
1 47643U 21012Z   23353.46240087 -.00010403  00000+0 -67989-3 0  9998
2 47643  53.0557  93.3544 0000830  97.7343 262.3740 15.06434400157478
